start=new Date('2022-08-04T00:00:00.000Z').valueOf();
sats=[{"EPHEMERIS_TYPE":"0","INCLINATION":"53.2156","REF_FRAME":"TEME","MEAN_MOTION_DOT":"-0.00026469","ECCENTRICITY":"0.00018750","LAUNCH_DATE":"2022-05-18","EPOCH":"2022-08-03T20:00:01.000224","ARG_OF_PERICENTER":"47.1671","MEAN_ANOMALY":"88.7545","COUNTRY_CODE":"US","MEAN_MOTION_DDOT":"0.0000000000000","DECAY_DATE":null,"BSTAR":"-0.00165030000000","RA_OF_ASC_NODE":"292.2550","REV_AT_EPOCH":"1269","APOAPSIS":"540.992","MEAN_MOTION":"15.08856599","TIME_SYSTEM":"UTC","ELEMENT_SET_NO":"999","FILE":"3528453","OBJECT_ID":"2022-053J","MEAN_ELEMENT_THEORY":"SGP4","NORAD_CAT_ID":"52664","SITE":"AFETR","PERIOD":"95.437","SEMIMAJOR_AXIS":"6917.830","RCS_SIZE":"MEDIUM","TLE_LINE2":"2 52664  53.2156 292.2550 0001875  47.1671  88.7545 15.08856599 12690","PERIAPSIS":"538.398","CENTER_NAME":"EARTH","OBJECT_NAME":"STARLINK-4070","CLASSIFICATION_TYPE":"U","TLE_LINE1":"1 52664U 22053J   22215.83334491 -.00026469  00000-0 -16503-2 0  9998","OBJECT_TYPE":"PAYLOAD","GP_ID":"209499322"},{"ARG_OF_PERICENTER":"40.4547","EPOCH":"2022-08-03T20:00:01.000224","LAUNCH_DATE":"2022-05-18","ECCENTRICITY":"0.00019610","REF_FRAME":"TEME","MEAN_MOTION_DOT":"-0.00030204","EPHEMERIS_TYPE":"0","INCLINATION":"53.2191","REV_AT_EPOCH":"1269","RA_OF_ASC_NODE":"292.2447","MEAN_MOTION_DDOT":"0.0000000000000","BSTAR":"-0.00188710000000","DECAY_DATE":null,"COUNTRY_CODE":"US","MEAN_ANOMALY":"195.4381","SEMIMAJOR_AXIS":"6917.851","PERIOD":"95.437","NORAD_CAT_ID":"52665","SITE":"AFETR","MEAN_ELEMENT_THEORY":"SGP4","FILE":"3528453","OBJECT_ID":"2022-053K","ELEMENT_SET_NO":"999","APOAPSIS":"541.073","MEAN_MOTION":"15.08849527","TIME_SYSTEM":"UTC","GP_ID":"209499334","OBJECT_TYPE":"PAYLOAD","CLASSIFICATION_TYPE":"U","TLE_LINE1":"1 52665U 22053K   22215.83334491 -.00030204  00000-0 -18871-2 0  9991","OBJECT_NAME":"STARLINK-4064","TLE_LINE2":"2 52665  53.2191 292.2447 0001961  40.4547 195.4381 15.08849527 12696","CENTER_NAME":"EARTH","PERIAPSIS":"538.360","RCS_SIZE":"LARGE"},{"NORAD_CAT_ID":"52666","SITE":"AFETR","MEAN_ELEMENT_THEORY":"SGP4","FILE":"3528364","ELEMENT_SET_NO":"999","OBJECT_ID":"2022-053L","APOAPSIS":"541.298","TIME_SYSTEM":"UTC","MEAN_MOTION":"15.08813950","SEMIMAJOR_AXIS":"6917.960","PERIOD":"95.439","OBJECT_NAME":"STARLINK-4079","TLE_LINE2":"2 52666  53.2165 293.3805 0002129  39.7574 237.4870 15.08813950  1303","CENTER_NAME":"EARTH","PERIAPSIS":"538.352","RCS_SIZE":"LARGE","GP_ID":"209496982","OBJECT_TYPE":"PAYLOAD","CLASSIFICATION_TYPE":"U","TLE_LINE1":"1 52666U 22053L   22215.58334491  .00021852  00000-0  13878-2 0  9993","ECCENTRICITY":"0.00021290","REF_FRAME":"TEME","MEAN_MOTION_DOT":"0.00021852","INCLINATION":"53.2165","EPHEMERIS_TYPE":"0","ARG_OF_PERICENTER":"39.7574","EPOCH":"2022-08-03T14:00:01.000224","LAUNCH_DATE":"2022-05-18","COUNTRY_CODE":"US","MEAN_ANOMALY":"237.4870","REV_AT_EPOCH":"130","RA_OF_ASC_NODE":"293.3805","MEAN_MOTION_DDOT":"0.0000000000000","BSTAR":"0.00138780000000","DECAY_DATE":null},{"ECCENTRICITY":"0.00019040","REF_FRAME":"TEME","MEAN_MOTION_DOT":"-0.00067135","INCLINATION":"53.2193","EPHEMERIS_TYPE":"0","ARG_OF_PERICENTER":"40.8774","EPOCH":"2022-08-03T20:00:01.000224","LAUNCH_DATE":"2022-05-18","COUNTRY_CODE":"US","MEAN_ANOMALY":"215.0517","RA_OF_ASC_NODE":"292.2449","REV_AT_EPOCH":"1269","MEAN_MOTION_DDOT":"0.0000000000000","BSTAR":"-0.00423580000000","DECAY_DATE":null,"SITE":"AFETR","NORAD_CAT_ID":"52667","MEAN_ELEMENT_THEORY":"SGP4","FILE":"3528454","ELEMENT_SET_NO":"999","OBJECT_ID":"2022-053M","APOAPSIS":"540.961","TIME_SYSTEM":"UTC","MEAN_MOTION":"15.08873370","SEMIMAJOR_AXIS":"6917.778","PERIOD":"95.435","OBJECT_NAME":"STARLINK-4076","TLE_LINE2":"2 52667  53.2193 292.2449 0001904  40.8774 215.0517 15.08873370 12698","CENTER_NAME":"EARTH","PERIAPSIS":"538.326","RCS_SIZE":"LARGE","GP_ID":"209498862","OBJECT_TYPE":"PAYLOAD","CLASSIFICATION_TYPE":"U","TLE_LINE1":"1 52667U 22053M   22215.83334491 -.00067135  00000-0 -42358-2 0  9993"},{"REF_FRAME":"TEME","MEAN_MOTION_DOT":"-0.00074754","INCLINATION":"53.2186","EPHEMERIS_TYPE":"0","ECCENTRICITY":"0.00018600","EPOCH":"2022-08-03T20:00:01.000224","LAUNCH_DATE":"2022-05-18","ARG_OF_PERICENTER":"41.1094","COUNTRY_CODE":"US","MEAN_ANOMALY":"174.8441","MEAN_MOTION_DDOT":"0.0000000000000","BSTAR":"-0.00472350000000","DECAY_DATE":null,"RA_OF_ASC_NODE":"292.2469","REV_AT_EPOCH":"1269","FILE":"3528455","ELEMENT_SET_NO":"999","OBJECT_ID":"2022-053N","APOAPSIS":"540.928","MEAN_MOTION":"15.08874119","TIME_SYSTEM":"UTC","NORAD_CAT_ID":"52668","SITE":"AFETR","MEAN_ELEMENT_THEORY":"SGP4","PERIOD":"95.435","SEMIMAJOR_AXIS":"6917.776","RCS_SIZE":"LARGE","OBJECT_NAME":"STARLINK-4067","TLE_LINE2":"2 52668  53.2186 292.2469 0001860  41.1094 174.8441 15.08874119 12693","CENTER_NAME":"EARTH","PERIAPSIS":"538.354","OBJECT_TYPE":"PAYLOAD","CLASSIFICATION_TYPE":"U","TLE_LINE1":"1 52668U 22053N   22215.83334491 -.00074754  00000-0 -47235-2 0  9998","GP_ID":"209498868"},{"MEAN_ELEMENT_THEORY":"SGP4","NORAD_CAT_ID":"52669","SITE":"AFETR","APOAPSIS":"541.227","TIME_SYSTEM":"UTC","MEAN_MOTION":"15.08824376","ELEMENT_SET_NO":"999","FILE":"3528364","OBJECT_ID":"2022-053P","PERIOD":"95.439","SEMIMAJOR_AXIS":"6917.928","CENTER_NAME":"EARTH","PERIAPSIS":"538.360","TLE_LINE2":"2 52669  53.2205 293.3664 0002072  36.1970   1.0428 15.08824376  1300","OBJECT_NAME":"STARLINK-3972","RCS_SIZE":"LARGE","GP_ID":"209496906","TLE_LINE1":"1 52669U 22053P   22215.58334491  .00017346  00000-0  11057-2 0  9996","CLASSIFICATION_TYPE":"U","OBJECT_TYPE":"PAYLOAD","ECCENTRICITY":"0.00020720","INCLINATION":"53.2205","EPHEMERIS_TYPE":"0","MEAN_MOTION_DOT":"0.00017346","REF_FRAME":"TEME","ARG_OF_PERICENTER":"36.1970","LAUNCH_DATE":"2022-05-18","EPOCH":"2022-08-03T14:00:01.000224","MEAN_ANOMALY":"1.0428","COUNTRY_CODE":"US","RA_OF_ASC_NODE":"293.3664","REV_AT_EPOCH":"130","DECAY_DATE":null,"BSTAR":"0.00110570000000","MEAN_MOTION_DDOT":"0.0000000000000"},{"GP_ID":"209496597","TLE_LINE1":"1 52670U 22053Q   22215.58334491  .00020438  00000-0  12992-2 0  9993","CLASSIFICATION_TYPE":"U","OBJECT_TYPE":"PAYLOAD","PERIAPSIS":"538.458","CENTER_NAME":"EARTH","TLE_LINE2":"2 52670  53.2194 293.3679 0001953  39.1975 272.8467 15.08819205  1306","OBJECT_NAME":"STARLINK-4075","RCS_SIZE":"LARGE","PERIOD":"95.439","SEMIMAJOR_AXIS":"6917.944","MEAN_ELEMENT_THEORY":"SGP4","NORAD_CAT_ID":"52670","SITE":"AFETR","APOAPSIS":"541.160","TIME_SYSTEM":"UTC","MEAN_MOTION":"15.08819205","ELEMENT_SET_NO":"999","FILE":"3528364","OBJECT_ID":"2022-053Q","RA_OF_ASC_NODE":"293.3679","REV_AT_EPOCH":"130","DECAY_DATE":null,"BSTAR":"0.00129920000000","MEAN_MOTION_DDOT":"0.0000000000000","MEAN_ANOMALY":"272.8467","COUNTRY_CODE":"US","ARG_OF_PERICENTER":"39.1975","LAUNCH_DATE":"2022-05-18","EPOCH":"2022-08-03T14:00:01.000224","ECCENTRICITY":"0.00019530","EPHEMERIS_TYPE":"0","INCLINATION":"53.2194","MEAN_MOTION_DOT":"0.00020438","REF_FRAME":"TEME"},{"BSTAR":"0.00109780000000","DECAY_DATE":null,"MEAN_MOTION_DDOT":"0.0000000000000","REV_AT_EPOCH":"1223","RA_OF_ASC_NODE":"293.3641","COUNTRY_CODE":"US","MEAN_ANOMALY":"17.0656","EPOCH":"2022-08-03T14:00:01.000224","LAUNCH_DATE":"2022-05-18","ARG_OF_PERICENTER":"40.1704","MEAN_MOTION_DOT":"0.00017219","REF_FRAME":"TEME","EPHEMERIS_TYPE":"0","INCLINATION":"53.2197","ECCENTRICITY":"0.00019020","OBJECT_TYPE":"PAYLOAD","TLE_LINE1":"1 52671U 22053R   22215.58334491  .00017219  00000-0  10978-2 0  9999","CLASSIFICATION_TYPE":"U","GP_ID":"209471379","RCS_SIZE":"LARGE","OBJECT_NAME":"STARLINK-4071","PERIAPSIS":"538.480","CENTER_NAME":"EARTH","TLE_LINE2":"2 52671  53.2197 293.3641 0001902  40.1704  17.0656 15.08823401 12231","PERIOD":"95.439","SEMIMAJOR_AXIS":"6917.931","FILE":"3528332","ELEMENT_SET_NO":"999","OBJECT_ID":"2022-053R","APOAPSIS":"541.112","TIME_SYSTEM":"UTC","MEAN_MOTION":"15.08823401","SITE":"AFETR","NORAD_CAT_ID":"52671","MEAN_ELEMENT_THEORY":"SGP4"},{"MEAN_ANOMALY":"234.3903","COUNTRY_CODE":"US","BSTAR":"-0.00199250000000","DECAY_DATE":null,"MEAN_MOTION_DDOT":"0.0000000000000","RA_OF_ASC_NODE":"292.2448","REV_AT_EPOCH":"1226","INCLINATION":"53.2193","EPHEMERIS_TYPE":"0","MEAN_MOTION_DOT":"-0.00031862","REF_FRAME":"TEME","ECCENTRICITY":"0.00018990","LAUNCH_DATE":"2022-05-18","EPOCH":"2022-08-03T20:00:01.000224","ARG_OF_PERICENTER":"41.5506","RCS_SIZE":"LARGE","CENTER_NAME":"EARTH","PERIAPSIS":"538.424","TLE_LINE2":"2 52672  53.2193 292.2448 0001899  41.5506 234.3903 15.08842579 12260","OBJECT_NAME":"STARLINK-4073","TLE_LINE1":"1 52672U 22053S   22215.83334491 -.00031862  00000-0 -19925-2 0  9991","CLASSIFICATION_TYPE":"U","OBJECT_TYPE":"PAYLOAD","GP_ID":"209499406","TIME_SYSTEM":"UTC","APOAPSIS":"541.051","MEAN_MOTION":"15.08842579","FILE":"3528458","ELEMENT_SET_NO":"999","OBJECT_ID":"2022-053S","MEAN_ELEMENT_THEORY":"SGP4","NORAD_CAT_ID":"52672","SITE":"AFETR","SEMIMAJOR_AXIS":"6917.873","PERIOD":"95.437"},{"EPHEMERIS_TYPE":"0","INCLINATION":"53.2173","REF_FRAME":"TEME","MEAN_MOTION_DOT":"-0.00030089","ECCENTRICITY":"0.00020770","LAUNCH_DATE":"2022-05-18","EPOCH":"2022-08-03T20:00:01.000224","ARG_OF_PERICENTER":"45.7331","MEAN_ANOMALY":"330.1934","COUNTRY_CODE":"US","MEAN_MOTION_DDOT":"0.0000000000000","BSTAR":"-0.00187940000000","DECAY_DATE":null,"REV_AT_EPOCH":"1227","RA_OF_ASC_NODE":"292.2370","APOAPSIS":"541.131","TIME_SYSTEM":"UTC","MEAN_MOTION":"15.08856779","ELEMENT_SET_NO":"999","FILE":"3528458","OBJECT_ID":"2022-053T","MEAN_ELEMENT_THEORY":"SGP4","SITE":"AFETR","NORAD_CAT_ID":"52673","PERIOD":"95.436","SEMIMAJOR_AXIS":"6917.829","RCS_SIZE":"LARGE","TLE_LINE2":"2 52673  53.2173 292.2370 0002077  45.7331 330.1934 15.08856779 12271","PERIAPSIS":"538.257","CENTER_NAME":"EARTH","OBJECT_NAME":"STARLINK-3976","CLASSIFICATION_TYPE":"U","TLE_LINE1":"1 52673U 22053T   22215.83334491 -.00030089  00000-0 -18794-2 0  9995","OBJECT_TYPE":"PAYLOAD","GP_ID":"209498920"}];
